{"type":"FeatureCollection","features":[{"type":"Feature","properties":{"basin":"paute","site":"mazar","role":"dam","pour_point":true,"pour_lat":-2.59375,"pour_lon":-78.619583,"located_from":"OSM way/311803060 \"Presa Mazar\" (42 nodes), api.openstreetmap.org 2026-09-23T04:21:28Z","area_km2":4418.1,"centroid_lat":-2.88189,"centroid_lon":-78.91734,"inside_lat":-2.88189,"inside_lon":-78.91734,"mean_elev_m":3114,"inamhi_best":"Mazar","inamhi_iou":0.912,"dem":"Copernicus GLO-90","generated_at":"2026-09-23T04:21:25Z"},"geometry":{"type":"Polygon","coordinates":[[[-78.719167,-2.426667],[-78.731667,-2.428333],[-78.738333,-2.434167],[-78.745,-2.431667],[-78.749167,-2.434167],[-78.749167,-2.443333],[-78.745833,-2.4475],[-78.748333,-2.464167],[-78.7525,-2.47],[-78.7475,-2.49],[-78.75,-2.4975],[-78.745,-2.503333],[-78.753333,-2.5125],[-78.751667,-2.529167],[-78.759167,-2.530833],[-78.764167,-2.535833],[-78.765,-2.545],[-78.7625,-2.548333],[-78.7675,-2.5525],[-78.7675,-2.568333],[-78.765,-2.571667],[-78.765,-2.579167],[-78.768333,-2.583333],[-78.766667,-2.590833],[-78.775,-2.603333],[-78.78,-2.605],[-78.784167,-2.6175],[-78.784167,-2.620833],[-78.775833,-2.6275],[-78.776667,-2.6375],[-78.79,-2.638333],[-78.794167,-2.645],[-78.800833,-2.6475],[-78.800833,-2.651667],[-78.805833,-2.6525],[-78.8175,-2.646667],[-78.836667,-2.648333],[-78.841667,-2.641667],[-78.838333,-2.634167],[-78.845833,-2.6325],[-78.849167,-2.635],[-78.85,-2.6425],[-78.85,-2.675833],[-78.855,-2.675833],[-78.863333,-2.6675],[-78.864167,-2.6625],[-78.879167,-2.6575],[-78.879167,-2.650833],[-78.900833,-2.645833],[-78.901667,-2.638333],[-78.905833,-2.638333],[-78.906667,-2.633333],[-78.913333,-2.630833],[-78.913333,-2.625833],[-78.921667,-2.614167],[-78.929167,-2.609167],[-78.9375,-2.6125],[-78.956667,-2.611667],[-78.965833,-2.615833],[-78.974167,-2.609167],[-78.979167,-2.609167],[-78.986667,-2.6],[-78.989167,-2.62],[-79.000833,-2.62],[-79.0025,-2.63],[-79.01,-2.636667],[-79.019167,-2.635],[-79.0275,-2.639167],[-79.035,-2.6325],[-79.034167,-2.626667],[-79.043333,-2.625],[-79.040833,-2.616667],[-79.0475,-2.6075],[-79.056667,-2.605833],[-79.056667,-2.611667],[-79.063333,-2.611667],[-79.0675,-2.620833],[-79.081667,-2.62],[-79.085833,-2.625833],[-79.096667,-2.624167],[-79.105,-2.6375],[-79.111667,-2.638333],[-79.111667,-2.641667],[-79.12,-2.6475],[-79.128333,-2.6475],[-79.131667,-2.655],[-79.1375,-2.6575],[-79.1375,-2.664167],[-79.1275,-2.665833],[-79.125833,-2.671667],[-79.1175,-2.67],[-79.114167,-2.6725],[-79.111667,-2.684167],[-79.116667,-2.688333],[-79.116667,-2.693333],[-79.13,-2.6925],[-79.143333,-2.696667],[-79.144167,-2.710833],[-79.140833,-2.723333],[-79.145833,-2.7325],[-79.154167,-2.735],[-79.163333,-2.731667],[-79.165833,-2.739167],[-79.1725,-2.744167],[-79.180833,-2.7425],[-79.185833,-2.749167],[-79.203333,-2.75],[-79.206667,-2.756667],[-79.2125,-2.754167],[-79.223333,-2.755833],[-79.230833,-2.751667],[-79.2425,-2.755833],[-79.245833,-2.7675],[-79.233333,-2.7875],[-79.2325,-2.805],[-79.229167,-2.810833],[-79.241667,-2.818333],[-79.240833,-2.8275],[-79.25,-2.839167],[-79.259167,-2.843333],[-79.258333,-2.851667],[-79.273333,-2.85],[-79.275833,-2.853333],[-79.284167,-2.8475],[-79.2875,-2.8525],[-79.285833,-2.856667],[-79.289167,-2.861667],[-79.285833,-2.870833],[-79.288333,-2.876667],[-79.281667,-2.885],[-79.28,-2.895],[-79.288333,-2.905],[-79.298333,-2.905],[-79.3025,-2.9225],[-79.3125,-2.9275],[-79.315,-2.9375],[-79.328333,-2.9475],[-79.328333,-2.9525],[-79.3375,-2.965833],[-79.334167,-2.9825],[-79.3375,-2.984167],[-79.339167,-2.995],[-79.359167,-3.004167],[-79.355,-3.015],[-79.364167,-3.021667],[-79.364167,-3.025],[-79.353333,-3.045833],[-79.340833,-3.040833],[-79.335833,-3.0425],[-79.325,-3.061667],[-79.315,-3.061667],[-79.3125,-3.065],[-79.305833,-3.065833],[-79.303333,-3.070833],[-79.291667,-3.070833],[-79.290833,-3.066667],[-79.285833,-3.066667],[-79.275833,-3.0725],[-79.273333,-3.061667],[-79.263333,-3.05],[-79.255,-3.055833],[-79.248333,-3.055],[-79.245,-3.059167],[-79.23,-3.055833],[-79.2275,-3.066667],[-79.22,-3.071667],[-79.210833,-3.070833],[-79.203333,-3.081667],[-79.1975,-3.081667],[-79.184167,-3.09],[-79.1825,-3.094167],[-79.17,-3.101667],[-79.166667,-3.110833],[-79.155,-3.11],[-79.1475,-3.115833],[-79.141667,-3.115833],[-79.121667,-3.1075],[-79.106667,-3.1075],[-79.104167,-3.113333],[-79.099167,-3.115],[-79.099167,-3.12],[-79.0875,-3.128333],[-79.084167,-3.139167],[-79.069167,-3.144167],[-79.0625,-3.14],[-79.0475,-3.145833],[-79.044167,-3.15],[-79.045,-3.158333],[-79.038333,-3.161667],[-79.04,-3.168333],[-79.028333,-3.1725],[-79.026667,-3.186667],[-79.020833,-3.1875],[-79.019167,-3.191667],[-79.014167,-3.191667],[-79.008333,-3.196667],[-79.001667,-3.193333],[-79.001667,-3.196667],[-78.9875,-3.196667],[-78.984167,-3.194167],[-78.981667,-3.200833],[-78.975,-3.1975],[-78.976667,-3.208333],[-78.9725,-3.2175],[-78.961667,-3.225],[-78.956667,-3.223333],[-78.955,-3.228333],[-78.945,-3.230833],[-78.944167,-3.2375],[-78.938333,-3.240833],[-78.935833,-3.248333],[-78.925833,-3.2525],[-78.928333,-3.26],[-78.923333,-3.271667],[-78.915,-3.274167],[-78.903333,-3.266667],[-78.901667,-3.256667],[-78.891667,-3.251667],[-78.879167,-3.250833],[-78.876667,-3.246667],[-78.865833,-3.241667],[-78.865833,-3.235833],[-78.8575,-3.23],[-78.85,-3.229167],[-78.845,-3.235],[-78.843333,-3.243333],[-78.834167,-3.245833],[-78.83,-3.240833],[-78.83,-3.235],[-78.811667,-3.213333],[-78.810833,-3.2075],[-78.805,-3.205833],[-78.794167,-3.191667],[-78.785833,-3.188333],[-78.7825,-3.176667],[-78.775833,-3.169167],[-78.766667,-3.163333],[-78.755,-3.160833],[-78.75,-3.154167],[-78.750833,-3.148333],[-78.7475,-3.148333],[-78.7425,-3.141667],[-78.735833,-3.14],[-78.7275,-3.143333],[-78.725833,-3.14],[-78.7075,-3.135],[-78.706667,-3.13],[-78.700833,-3.129167],[-78.695833,-3.108333],[-78.6875,-3.105833],[-78.688333,-3.1],[-78.6825,-3.083333],[-78.683333,-3.07],[-78.673333,-3.068333],[-78.670833,-3.064167],[-78.675,-3.0275],[-78.664167,-3.0225],[-78.6625,-3.005833],[-78.6575,-3.000833],[-78.6575,-2.988333],[-78.6475,-2.9875],[-78.639167,-2.9825],[-78.631667,-2.969167],[-78.631667,-2.959167],[-78.636667,-2.954167],[-78.634167,-2.941667],[-78.628333,-2.936667],[-78.628333,-2.925],[-78.633333,-2.920833],[-78.631667,-2.914167],[-78.620833,-2.905],[-78.615,-2.906667],[-78.615,-2.8975],[-78.610833,-2.89],[-78.605,-2.8875],[-78.600833,-2.873333],[-78.590833,-2.861667],[-78.575833,-2.851667],[-78.578333,-2.845],[-78.575,-2.83],[-78.585,-2.818333],[-78.596667,-2.8175],[-78.598333,-2.809167],[-78.611667,-2.79],[-78.6125,-2.784167],[-78.601667,-2.768333],[-78.600833,-2.7625],[-78.591667,-2.761667],[-78.589167,-2.7525],[-78.5925,-2.744167],[-78.576667,-2.718333],[-78.5775,-2.7075],[-78.566667,-2.705833],[-78.564167,-2.6975],[-78.571667,-2.6925],[-78.5725,-2.688333],[-78.574167,-2.659167],[-78.570833,-2.644167],[-78.578333,-2.629167],[-78.586667,-2.623333],[-78.5875,-2.6125],[-78.593333,-2.605833],[-78.609167,-2.605833],[-78.619167,-2.595833],[-78.62,-2.58],[-78.629167,-2.5675],[-78.628333,-2.556667],[-78.638333,-2.553333],[-78.640833,-2.525833],[-78.6475,-2.51],[-78.645833,-2.5],[-78.654167,-2.495833],[-78.656667,-2.484167],[-78.681667,-2.47],[-78.6825,-2.463333],[-78.6975,-2.464167],[-78.704167,-2.454167],[-78.716667,-2.450833],[-78.719167,-2.4375],[-78.713333,-2.429167],[-78.719167,-2.426667]]]}},{"type":"Feature","properties":{"basin":"coca","site":"coca_codo_sinclair","role":"dam","pour_point":true,"pour_lat":-0.195417,"pour_lon":-77.684583,"located_from":"OSM way/310742588 \"Coca Codo Sinclair\" (4 nodes), api.openstreetmap.org 2026-09-23T04:21:39Z","area_km2":3727.3,"centroid_lat":-0.30337,"centroid_lon":-77.92656,"inside_lat":-0.30337,"inside_lon":-77.92656,"mean_elev_m":3003,"inamhi_best":"Coca-Codo4326","inamhi_iou":0.996,"dem":"Copernicus GLO-90","generated_at":"2026-09-23T04:21:25Z"},"geometry":{"type":"Polygon","coordinates":[[[-77.948333,0.165],[-77.955833,0.1575],[-77.964167,0.158333],[-77.965,0.150833],[-77.971667,0.143333],[-77.97,0.135833],[-77.975,0.128333],[-77.9725,0.1225],[-77.980833,0.105833],[-77.979167,0.101667],[-77.975833,0.101667],[-77.975833,0.095],[-77.986667,0.07],[-77.995,0.056667],[-78.001667,0.054167],[-78.005833,0.045],[-78.0025,0.029167],[-77.998333,0.025],[-77.989167,0.024167],[-77.9925,-0.003333],[-77.9875,-0.011667],[-77.991667,-0.016667],[-77.986667,-0.029167],[-77.988333,-0.041667],[-77.991667,-0.043333],[-77.991667,-0.053333],[-77.985833,-0.058333],[-77.9925,-0.059167],[-78.003333,-0.068333],[-78.000833,-0.076667],[-77.995833,-0.080833],[-77.999167,-0.095],[-77.995,-0.096667],[-77.9925,-0.105833],[-77.99,-0.105833],[-77.99,-0.11],[-77.995833,-0.111667],[-77.999167,-0.116667],[-77.999167,-0.128333],[-78.008333,-0.13],[-78.0175,-0.140833],[-78.0275,-0.138333],[-78.033333,-0.141667],[-78.04,-0.138333],[-78.05,-0.145],[-78.0525,-0.15],[-78.056667,-0.150833],[-78.054167,-0.163333],[-78.060833,-0.168333],[-78.061667,-0.175833],[-78.07,-0.176667],[-78.070833,-0.184167],[-78.079167,-0.183333],[-78.083333,-0.19],[-78.091667,-0.181667],[-78.100833,-0.191667],[-78.1075,-0.180833],[-78.115833,-0.179167],[-78.124167,-0.181667],[-78.129167,-0.178333],[-78.128333,-0.173333],[-78.131667,-0.168333],[-78.14,-0.1675],[-78.146667,-0.173333],[-78.155,-0.173333],[-78.158333,-0.185],[-78.166667,-0.1875],[-78.1725,-0.195],[-78.1825,-0.191667],[-78.189167,-0.198333],[-78.191667,-0.2125],[-78.186667,-0.215],[-78.19,-0.228333],[-78.185833,-0.230833],[-78.185,-0.238333],[-78.189167,-0.24],[-78.1875,-0.254167],[-78.19,-0.259167],[-78.185,-0.266667],[-78.190833,-0.2725],[-78.1875,-0.29],[-78.191667,-0.294167],[-78.191667,-0.305],[-78.195,-0.305833],[-78.190833,-0.320833],[-78.1925,-0.325833],[-78.2025,-0.3325],[-78.208333,-0.349167],[-78.214167,-0.355],[-78.215,-0.3625],[-78.224167,-0.364167],[-78.231667,-0.379167],[-78.2425,-0.383333],[-78.244167,-0.396667],[-78.255,-0.406667],[-78.255,-0.41],[-78.248333,-0.426667],[-78.2425,-0.428333],[-78.235,-0.436667],[-78.236667,-0.456667],[-78.205833,-0.465833],[-78.199167,-0.459167],[-78.191667,-0.459167],[-78.185,-0.469167],[-78.175,-0.4675],[-78.161667,-0.474167],[-78.155,-0.474167],[-78.14,-0.485833],[-78.145833,-0.5],[-78.1625,-0.5125],[-78.161667,-0.525833],[-78.1675,-0.534167],[-78.1675,-0.54],[-78.1725,-0.543333],[-78.173333,-0.554167],[-78.184167,-0.5625],[-78.181667,-0.570833],[-78.175833,-0.5725],[-78.175,-0.575833],[-78.165833,-0.575833],[-78.165833,-0.58],[-78.156667,-0.59],[-78.151667,-0.59],[-78.15,-0.595],[-78.14,-0.599167],[-78.1325,-0.594167],[-78.118333,-0.591667],[-78.115,-0.586667],[-78.110833,-0.588333],[-78.108333,-0.6],[-78.104167,-0.6025],[-78.100833,-0.613333],[-78.108333,-0.63],[-78.104167,-0.641667],[-78.095,-0.636667],[-78.0875,-0.636667],[-78.084167,-0.6325],[-78.085833,-0.6275],[-78.075,-0.619167],[-78.050833,-0.615833],[-78.038333,-0.618333],[-78.034167,-0.6275],[-78.028333,-0.6275],[-78.0225,-0.633333],[-78.018333,-0.644167],[-78.005833,-0.651667],[-77.998333,-0.649167],[-77.993333,-0.6575],[-77.985833,-0.656667],[-77.978333,-0.660833],[-77.973333,-0.666667],[-77.973333,-0.690833],[-77.964167,-0.690833],[-77.956667,-0.7],[-77.939167,-0.71],[-77.9425,-0.728333],[-77.929167,-0.7325],[-77.929167,-0.729167],[-77.9225,-0.731667],[-77.914167,-0.719167],[-77.905833,-0.714167],[-77.904167,-0.698333],[-77.899167,-0.695],[-77.899167,-0.675],[-77.8925,-0.6725],[-77.888333,-0.665833],[-77.871667,-0.663333],[-77.864167,-0.658333],[-77.8575,-0.636667],[-77.8475,-0.6325],[-77.835,-0.619167],[-77.823333,-0.615],[-77.8175,-0.605],[-77.8075,-0.598333],[-77.81,-0.58],[-77.804167,-0.571667],[-77.805833,-0.566667],[-77.800833,-0.5625],[-77.795833,-0.546667],[-77.789167,-0.545833],[-77.785833,-0.54],[-77.778333,-0.5375],[-77.77,-0.519167],[-77.760833,-0.52],[-77.744167,-0.515],[-77.7425,-0.506667],[-77.738333,-0.504167],[-77.74,-0.495833],[-77.7325,-0.49],[-77.733333,-0.475],[-77.726667,-0.474167],[-77.7275,-0.465833],[-77.719167,-0.4575],[-77.716667,-0.445833],[-77.719167,-0.434167],[-77.71,-0.429167],[-77.7075,-0.424167],[-77.708333,-0.411667],[-77.705,-0.405833],[-77.686667,-0.396667],[-77.675,-0.385],[-77.665833,-0.383333],[-77.645,-0.37],[-77.64,-0.370833],[-77.636667,-0.3575],[-77.629167,-0.356667],[-77.629167,-0.3375],[-77.633333,-0.3325],[-77.6325,-0.325],[-77.638333,-0.3175],[-77.6425,-0.296667],[-77.6475,-0.2925],[-77.646667,-0.2875],[-77.649167,-0.2825],[-77.655833,-0.280833],[-77.655,-0.274167],[-77.659167,-0.2725],[-77.660833,-0.249167],[-77.6525,-0.230833],[-77.668333,-0.225],[-77.668333,-0.218333],[-77.674167,-0.2125],[-77.6725,-0.203333],[-77.6825,-0.195],[-77.689167,-0.2],[-77.695833,-0.196667],[-77.695833,-0.178333],[-77.6875,-0.17],[-77.688333,-0.154167],[-77.6925,-0.150833],[-77.708333,-0.153333],[-77.715,-0.139167],[-77.7125,-0.133333],[-77.716667,-0.126667],[-77.71,-0.116667],[-77.714167,-0.111667],[-77.7225,-0.110833],[-77.7275,-0.106667],[-77.726667,-0.095],[-77.729167,-0.093333],[-77.730833,-0.075],[-77.7375,-0.063333],[-77.74,-0.049167],[-77.745,-0.045833],[-77.745,-0.038333],[-77.740833,-0.034167],[-77.745,-0.01],[-77.743333,0.015],[-77.750833,0.025],[-77.748333,0.035833],[-77.75,0.048333],[-77.768333,0.059167],[-77.7775,0.074167],[-77.788333,0.08],[-77.79,0.094167],[-77.784167,0.098333],[-77.786667,0.103333],[-77.795833,0.1],[-77.800833,0.103333],[-77.804167,0.1],[-77.826667,0.101667],[-77.831667,0.099167],[-77.839167,0.105],[-77.839167,0.11],[-77.848333,0.113333],[-77.848333,0.1225],[-77.854167,0.124167],[-77.8575,0.120833],[-77.861667,0.1225],[-77.8725,0.118333],[-77.885833,0.130833],[-77.895,0.1225],[-77.9075,0.125],[-77.9125,0.1225],[-77.920833,0.13],[-77.92,0.136667],[-77.923333,0.138333],[-77.923333,0.143333],[-77.9325,0.150833],[-77.935833,0.15],[-77.948333,0.165]]]}},{"type":"Feature","properties":{"basin":"pastaza","site":"agoyan","role":"dam","pour_point":true,"pour_lat":-1.402083,"pour_lon":-78.37125,"located_from":"OSM node/8432673468 \"Central hidroeléctrica Agoyán\" (1 node), api.openstreetmap.org 2026-09-23T04:21:50Z","area_km2":8242.4,"centroid_lat":-1.40182,"centroid_lon":-78.6128,"inside_lat":-1.40182,"inside_lon":-78.6128,"mean_elev_m":3467,"inamhi_best":"Hidroagoyan","inamhi_iou":0.995,"dem":"Copernicus GLO-90","generated_at":"2026-09-23T04:21:25Z"},"geometry":{"type":"Polygon","coordinates":[[[-78.514167,-0.594167],[-78.5175,-0.595],[-78.520833,-0.6025],[-78.5325,-0.605],[-78.546667,-0.6025],[-78.566667,-0.608333],[-78.57,-0.615833],[-78.579167,-0.618333],[-78.5775,-0.6225],[-78.585833,-0.6425],[-78.595833,-0.651667],[-78.6,-0.6475],[-78.6125,-0.65],[-78.6175,-0.645833],[-78.623333,-0.654167],[-78.64,-0.6525],[-78.644167,-0.664167],[-78.655,-0.665833],[-78.660833,-0.663333],[-78.678333,-0.665833],[-78.693333,-0.659167],[-78.715,-0.660833],[-78.713333,-0.675833],[-78.723333,-0.690833],[-78.7375,-0.696667],[-78.7475,-0.73],[-78.755,-0.736667],[-78.761667,-0.7375],[-78.766667,-0.734167],[-78.765,-0.750833],[-78.775,-0.765],[-78.775,-0.778333],[-78.7775,-0.780833],[-78.774167,-0.791667],[-78.788333,-0.795833],[-78.791667,-0.805833],[-78.804167,-0.808333],[-78.808333,-0.816667],[-78.803333,-0.836667],[-78.809167,-0.863333],[-78.804167,-0.87],[-78.805833,-0.876667],[-78.8125,-0.881667],[-78.811667,-0.888333],[-78.815833,-0.8925],[-78.815,-0.899167],[-78.809167,-0.905833],[-78.808333,-0.92],[-78.795833,-0.925],[-78.796667,-0.94],[-78.799167,-0.943333],[-78.809167,-0.943333],[-78.811667,-0.9475],[-78.808333,-0.9725],[-78.8025,-0.981667],[-78.794167,-0.986667],[-78.7875,-0.986667],[-78.786667,-0.99],[-78.798333,-1.0025],[-78.805,-1.018333],[-78.816667,-1.02],[-78.819167,-1.0175],[-78.823333,-1.021667],[-78.831667,-1.023333],[-78.8325,-1.030833],[-78.8375,-1.036667],[-78.836667,-1.0625],[-78.8425,-1.070833],[-78.84,-1.08],[-78.845,-1.085833],[-78.8375,-1.095],[-78.84,-1.105],[-78.834167,-1.1075],[-78.825,-1.105833],[-78.821667,-1.113333],[-78.8075,-1.1125],[-78.799167,-1.125],[-78.795833,-1.124167],[-78.788333,-1.131667],[-78.789167,-1.143333],[-78.7975,-1.145833],[-78.805833,-1.155833],[-78.81,-1.1525],[-78.831667,-1.166667],[-78.831667,-1.174167],[-78.84,-1.176667],[-78.845,-1.183333],[-78.859167,-1.174167],[-78.860833,-1.183333],[-78.865833,-1.185833],[-78.8625,-1.194167],[-78.879167,-1.209167],[-78.883333,-1.209167],[-78.8825,-1.211667],[-78.893333,-1.225],[-78.890833,-1.2525],[-78.885,-1.26],[-78.8875,-1.268333],[-78.891667,-1.270833],[-78.890833,-1.2775],[-78.896667,-1.294167],[-78.9025,-1.299167],[-78.904167,-1.305833],[-78.913333,-1.3075],[-78.9125,-1.32],[-78.915833,-1.3275],[-78.933333,-1.3375],[-78.9325,-1.35],[-78.939167,-1.358333],[-78.925833,-1.375833],[-78.930833,-1.383333],[-78.925,-1.391667],[-78.925833,-1.398333],[-78.929167,-1.4],[-78.928333,-1.405],[-78.923333,-1.410833],[-78.914167,-1.410833],[-78.908333,-1.4325],[-78.895,-1.436667],[-78.874167,-1.461667],[-78.851667,-1.469167],[-78.841667,-1.464167],[-78.835833,-1.465833],[-78.841667,-1.473333],[-78.854167,-1.475],[-78.865833,-1.4875],[-78.865,-1.495],[-78.869167,-1.498333],[-78.8675,-1.514167],[-78.875,-1.519167],[-78.8775,-1.526667],[-78.875,-1.5375],[-78.855833,-1.544167],[-78.854167,-1.555833],[-78.845,-1.56],[-78.844167,-1.57],[-78.8475,-1.570833],[-78.8525,-1.585833],[-78.841667,-1.5925],[-78.841667,-1.596667],[-78.836667,-1.600833],[-78.839167,-1.606667],[-78.8375,-1.62],[-78.841667,-1.625],[-78.840833,-1.639167],[-78.845833,-1.641667],[-78.843333,-1.6525],[-78.836667,-1.660833],[-78.845,-1.665],[-78.845,-1.671667],[-78.8575,-1.6725],[-78.860833,-1.675833],[-78.86,-1.6925],[-78.866667,-1.709167],[-78.860833,-1.73],[-78.8525,-1.73],[-78.850833,-1.733333],[-78.85,-1.75],[-78.843333,-1.75],[-78.834167,-1.755],[-78.839167,-1.7725],[-78.835,-1.778333],[-78.836667,-1.788333],[-78.845,-1.7975],[-78.846667,-1.805],[-78.846667,-1.828333],[-78.845833,-1.831667],[-78.841667,-1.831667],[-78.8325,-1.84],[-78.840833,-1.845],[-78.85,-1.858333],[-78.849167,-1.876667],[-78.844167,-1.883333],[-78.850833,-1.8925],[-78.85,-1.909167],[-78.855833,-1.924167],[-78.85,-1.940833],[-78.8425,-1.94],[-78.839167,-1.934167],[-78.834167,-1.935833],[-78.830833,-1.941667],[-78.8225,-1.940833],[-78.821667,-1.945833],[-78.814167,-1.9475],[-78.815,-1.963333],[-78.8225,-1.9675],[-78.823333,-1.981667],[-78.826667,-1.986667],[-78.83,-1.989167],[-78.8425,-1.988333],[-78.849167,-1.995833],[-78.8475,-1.999167],[-78.840833,-2],[-78.828333,-2.020833],[-78.815833,-2.018333],[-78.810833,-2.026667],[-78.795,-2.021667],[-78.770833,-2.030833],[-78.77,-2.050833],[-78.753333,-2.0525],[-78.753333,-2.0575],[-78.7475,-2.0625],[-78.738333,-2.0625],[-78.735,-2.065833],[-78.711667,-2.0625],[-78.708333,-2.068333],[-78.703333,-2.069167],[-78.701667,-2.075],[-78.695833,-2.075],[-78.6925,-2.08],[-78.669167,-2.0775],[-78.6525,-2.085833],[-78.6475,-2.081667],[-78.643333,-2.083333],[-78.64,-2.088333],[-78.64,-2.096667],[-78.630833,-2.099167],[-78.624167,-2.115],[-78.64,-2.1225],[-78.645833,-2.139167],[-78.653333,-2.143333],[-78.6525,-2.153333],[-78.659167,-2.174167],[-78.669167,-2.183333],[-78.673333,-2.183333],[-78.675,-2.194167],[-78.681667,-2.2],[-78.681667,-2.210833],[-78.668333,-2.234167],[-78.669167,-2.240833],[-78.663333,-2.246667],[-78.645833,-2.248333],[-78.644167,-2.26],[-78.629167,-2.269167],[-78.629167,-2.2825],[-78.6225,-2.285833],[-78.625,-2.2975],[-78.621667,-2.298333],[-78.621667,-2.301667],[-78.605,-2.303333],[-78.5975,-2.313333],[-78.585833,-2.313333],[-78.574167,-2.304167],[-78.564167,-2.3075],[-78.549167,-2.305],[-78.545,-2.300833],[-78.546667,-2.290833],[-78.5375,-2.280833],[-78.54,-2.270833],[-78.536667,-2.264167],[-78.543333,-2.254167],[-78.5375,-2.250833],[-78.536667,-2.2425],[-78.514167,-2.240833],[-78.510833,-2.2475],[-78.504167,-2.246667],[-78.498333,-2.241667],[-78.499167,-2.23],[-78.493333,-2.228333],[-78.4875,-2.220833],[-78.49,-2.2125],[-78.500833,-2.206667],[-78.503333,-2.2],[-78.5,-2.194167],[-78.501667,-2.183333],[-78.505833,-2.179167],[-78.503333,-2.158333],[-78.515833,-2.155],[-78.513333,-2.133333],[-78.506667,-2.1275],[-78.496667,-2.126667],[-78.494167,-2.1225],[-78.480833,-2.13],[-78.479167,-2.124167],[-78.470833,-2.1225],[-78.470833,-2.119167],[-78.45,-2.118333],[-78.445833,-2.111667],[-78.445833,-2.101667],[-78.434167,-2.091667],[-78.435833,-2.085],[-78.439167,-2.085],[-78.438333,-2.076667],[-78.445833,-2.073333],[-78.4475,-2.065833],[-78.4525,-2.065],[-78.450833,-2.03],[-78.4475,-2.0275],[-78.449167,-2.021667],[-78.441667,-2.0125],[-78.4575,-1.9975],[-78.458333,-1.9925],[-78.478333,-2.003333],[-78.4875,-1.983333],[-78.485833,-1.973333],[-78.489167,-1.959167],[-78.4825,-1.9525],[-78.463333,-1.95],[-78.46,-1.945833],[-78.461667,-1.9375],[-78.456667,-1.93],[-78.4575,-1.921667],[-78.444167,-1.911667],[-78.433333,-1.91],[-78.43,-1.898333],[-78.419167,-1.895],[-78.419167,-1.884167],[-78.403333,-1.879167],[-78.4,-1.873333],[-78.403333,-1.863333],[-78.396667,-1.8525],[-78.400833,-1.846667],[-78.409167,-1.845833],[-78.42,-1.830833],[-78.42,-1.805],[-78.4225,-1.800833],[-78.436667,-1.794167],[-78.44,-1.770833],[-78.445833,-1.7625],[-78.458333,-1.7625],[-78.466667,-1.7525],[-78.46,-1.749167],[-78.459167,-1.74],[-78.450833,-1.733333],[-78.4475,-1.7175],[-78.439167,-1.699167],[-78.435833,-1.6975],[-78.435,-1.689167],[-78.431667,-1.685833],[-78.416667,-1.686667],[-78.411667,-1.683333],[-78.408333,-1.665],[-78.383333,-1.655],[-78.370833,-1.6575],[-78.370833,-1.653333],[-78.363333,-1.645833],[-78.366667,-1.615],[-78.364167,-1.606667],[-78.3725,-1.600833],[-78.373333,-1.590833],[-78.376667,-1.586667],[-78.371667,-1.583333],[-78.37,-1.576667],[-78.375833,-1.558333],[-78.373333,-1.549167],[-78.375833,-1.535833],[-78.364167,-1.534167],[-78.363333,-1.524167],[-78.356667,-1.520833],[-78.359167,-1.515833],[-78.364167,-1.514167],[-78.3625,-1.498333],[-78.3725,-1.496667],[-78.374167,-1.490833],[-78.369167,-1.478333],[-78.358333,-1.471667],[-78.355,-1.460833],[-78.364167,-1.458333],[-78.374167,-1.443333],[-78.379167,-1.443333],[-78.383333,-1.439167],[-78.381667,-1.4325],[-78.386667,-1.42],[-78.38,-1.408333],[-78.370833,-1.405],[-78.370833,-1.400833],[-78.375,-1.399167],[-78.375833,-1.39],[-78.371667,-1.3825],[-78.375,-1.374167],[-78.373333,-1.354167],[-78.365833,-1.341667],[-78.37,-1.333333],[-78.3675,-1.329167],[-78.37,-1.323333],[-78.365833,-1.319167],[-78.369167,-1.314167],[-78.365,-1.311667],[-78.361667,-1.303333],[-78.356667,-1.301667],[-78.358333,-1.294167],[-78.350833,-1.286667],[-78.350833,-1.281667],[-78.3475,-1.2775],[-78.343333,-1.2775],[-78.345833,-1.273333],[-78.345,-1.2625],[-78.338333,-1.251667],[-78.333333,-1.25],[-78.335833,-1.243333],[-78.331667,-1.238333],[-78.334167,-1.2225],[-78.3225,-1.216667],[-78.324167,-1.210833],[-78.330833,-1.2075],[-78.326667,-1.195833],[-78.3325,-1.195833],[-78.3325,-1.1875],[-78.339167,-1.185],[-78.3425,-1.174167],[-78.35,-1.174167],[-78.351667,-1.163333],[-78.358333,-1.161667],[-78.345833,-1.149167],[-78.345833,-1.141667],[-78.3375,-1.136667],[-78.3375,-1.115833],[-78.334167,-1.11],[-78.3425,-1.098333],[-78.341667,-1.0925],[-78.331667,-1.084167],[-78.334167,-1.074167],[-78.329167,-1.063333],[-78.3325,-1.061667],[-78.3325,-1.056667],[-78.328333,-1.053333],[-78.326667,-1.044167],[-78.33,-1.0425],[-78.331667,-1.035833],[-78.344167,-1.028333],[-78.350833,-1.016667],[-78.35,-1.01],[-78.36,-1],[-78.364167,-1.0025],[-78.37,-1.000833],[-78.375,-1.006667],[-78.394167,-0.998333],[-78.3925,-0.973333],[-78.395,-0.964167],[-78.400833,-0.965],[-78.41,-0.96],[-78.413333,-0.951667],[-78.4225,-0.9575],[-78.423333,-0.949167],[-78.43,-0.945833],[-78.43,-0.9375],[-78.4225,-0.930833],[-78.4225,-0.926667],[-78.4175,-0.925833],[-78.4125,-0.911667],[-78.419167,-0.906667],[-78.4225,-0.891667],[-78.428333,-0.885],[-78.426667,-0.876667],[-78.4175,-0.878333],[-78.4025,-0.871667],[-78.399167,-0.86],[-78.4,-0.845833],[-78.389167,-0.820833],[-78.388333,-0.803333],[-78.393333,-0.8],[-78.393333,-0.780833],[-78.3975,-0.771667],[-78.3975,-0.765],[-78.391667,-0.759167],[-78.3925,-0.7475],[-78.399167,-0.739167],[-78.400833,-0.731667],[-78.415833,-0.720833],[-78.421667,-0.721667],[-78.424167,-0.703333],[-78.430833,-0.696667],[-78.434167,-0.6875],[-78.438333,-0.686667],[-78.439167,-0.676667],[-78.449167,-0.665],[-78.455,-0.648333],[-78.4675,-0.635],[-78.4825,-0.626667],[-78.485833,-0.615833],[-78.500833,-0.609167],[-78.514167,-0.594167]]]}},{"type":"Feature","properties":{"basin":"guayllabamba","site":"manduriacu","role":"wikidata point","pour_point":true,"pour_lat":0.214583,"pour_lon":-78.91625,"located_from":"point recorded in PLAN.md §2.4","area_km2":6969.3,"centroid_lat":-0.04754,"centroid_lon":-78.43554,"inside_lat":-0.04754,"inside_lon":-78.43554,"mean_elev_m":2813,"inamhi_best":"manduriacudisolv","inamhi_iou":0.992,"dem":"Copernicus GLO-90","generated_at":"2026-09-23T04:21:25Z"},"geometry":{"type":"Polygon","coordinates":[[[-78.4225,0.586667],[-78.426667,0.585],[-78.429167,0.5725],[-78.438333,0.569167],[-78.439167,0.563333],[-78.446667,0.555833],[-78.445833,0.549167],[-78.454167,0.538333],[-78.463333,0.539167],[-78.465,0.533333],[-78.469167,0.5325],[-78.489167,0.544167],[-78.498333,0.545],[-78.509167,0.539167],[-78.518333,0.5275],[-78.534167,0.526667],[-78.5425,0.52],[-78.550833,0.518333],[-78.558333,0.509167],[-78.555,0.5],[-78.5575,0.498333],[-78.559167,0.4825],[-78.580833,0.468333],[-78.591667,0.4675],[-78.595,0.460833],[-78.6,0.459167],[-78.600833,0.453333],[-78.606667,0.451667],[-78.6075,0.438333],[-78.614167,0.429167],[-78.615,0.411667],[-78.625833,0.406667],[-78.633333,0.398333],[-78.64,0.3975],[-78.655,0.3775],[-78.665833,0.378333],[-78.6725,0.373333],[-78.68,0.373333],[-78.699167,0.3825],[-78.701667,0.394167],[-78.716667,0.4025],[-78.730833,0.400833],[-78.736667,0.403333],[-78.74,0.4],[-78.746667,0.4],[-78.754167,0.4075],[-78.765833,0.4075],[-78.771667,0.401667],[-78.7675,0.398333],[-78.7675,0.394167],[-78.7725,0.390833],[-78.775833,0.3825],[-78.785,0.378333],[-78.786667,0.368333],[-78.795,0.355833],[-78.794167,0.349167],[-78.8025,0.335833],[-78.8125,0.325833],[-78.818333,0.328333],[-78.825,0.326667],[-78.838333,0.310833],[-78.845833,0.308333],[-78.860833,0.274167],[-78.884167,0.253333],[-78.8875,0.236667],[-78.898333,0.225],[-78.916667,0.218333],[-78.914167,0.209167],[-78.905,0.2075],[-78.8925,0.211667],[-78.886667,0.204167],[-78.885833,0.195833],[-78.876667,0.194167],[-78.870833,0.1825],[-78.871667,0.175833],[-78.858333,0.165],[-78.8475,0.161667],[-78.8425,0.151667],[-78.831667,0.153333],[-78.826667,0.15],[-78.826667,0.141667],[-78.8225,0.133333],[-78.835,0.115833],[-78.8225,0.11],[-78.811667,0.0975],[-78.806667,0.095833],[-78.795833,0.083333],[-78.795833,0.078333],[-78.784167,0.071667],[-78.780833,0.0625],[-78.756667,0.059167],[-78.74,0.049167],[-78.728333,0.054167],[-78.716667,0.054167],[-78.704167,0.043333],[-78.694167,0.0425],[-78.6975,0.011667],[-78.685833,-0.001667],[-78.689167,-0.008333],[-78.6825,-0.019167],[-78.685833,-0.020833],[-78.683333,-0.035],[-78.676667,-0.0375],[-78.67,-0.033333],[-78.663333,-0.035],[-78.655,-0.046667],[-78.643333,-0.05],[-78.639167,-0.061667],[-78.633333,-0.064167],[-78.631667,-0.071667],[-78.62,-0.080833],[-78.6175,-0.099167],[-78.605833,-0.105833],[-78.605,-0.1125],[-78.5975,-0.115],[-78.596667,-0.1225],[-78.5925,-0.1275],[-78.5825,-0.1275],[-78.574167,-0.1375],[-78.575833,-0.161667],[-78.5675,-0.159167],[-78.565833,-0.164167],[-78.549167,-0.171667],[-78.536667,-0.186667],[-78.544167,-0.2025],[-78.545,-0.213333],[-78.554167,-0.220833],[-78.556667,-0.236667],[-78.568333,-0.245],[-78.571667,-0.2575],[-78.580833,-0.264167],[-78.594167,-0.265],[-78.596667,-0.269167],[-78.601667,-0.27],[-78.61,-0.284167],[-78.61,-0.304167],[-78.6,-0.310833],[-78.601667,-0.318333],[-78.606667,-0.319167],[-78.608333,-0.3325],[-78.62,-0.355],[-78.62,-0.364167],[-78.61,-0.3725],[-78.610833,-0.380833],[-78.6175,-0.388333],[-78.6175,-0.3925],[-78.610833,-0.399167],[-78.6075,-0.413333],[-78.611667,-0.415833],[-78.61,-0.424167],[-78.613333,-0.4275],[-78.6175,-0.454167],[-78.621667,-0.458333],[-78.62,-0.4675],[-78.629167,-0.480833],[-78.654167,-0.504167],[-78.655,-0.513333],[-78.658333,-0.515],[-78.656667,-0.529167],[-78.6625,-0.535833],[-78.668333,-0.5375],[-78.675833,-0.546667],[-78.679167,-0.556667],[-78.694167,-0.5675],[-78.694167,-0.578333],[-78.700833,-0.5825],[-78.6975,-0.589167],[-78.6975,-0.611667],[-78.704167,-0.625],[-78.715,-0.633333],[-78.719167,-0.640833],[-78.72,-0.65],[-78.715,-0.651667],[-78.715,-0.660833],[-78.693333,-0.659167],[-78.678333,-0.665833],[-78.663333,-0.663333],[-78.655,-0.665833],[-78.644167,-0.664167],[-78.64,-0.6525],[-78.623333,-0.654167],[-78.6175,-0.645833],[-78.6125,-0.65],[-78.6,-0.6475],[-78.595833,-0.651667],[-78.585833,-0.6425],[-78.5775,-0.6225],[-78.579167,-0.618333],[-78.57,-0.615833],[-78.566667,-0.608333],[-78.546667,-0.6025],[-78.5375,-0.605],[-78.520833,-0.6025],[-78.515,-0.594167],[-78.500833,-0.609167],[-78.485833,-0.615833],[-78.481667,-0.6275],[-78.461667,-0.640833],[-78.455,-0.648333],[-78.445833,-0.670833],[-78.434167,-0.683333],[-78.4175,-0.685],[-78.413333,-0.681667],[-78.4025,-0.6825],[-78.385833,-0.675],[-78.3625,-0.6775],[-78.359167,-0.6725],[-78.343333,-0.664167],[-78.3425,-0.66],[-78.330833,-0.658333],[-78.329167,-0.645833],[-78.32,-0.6275],[-78.326667,-0.615833],[-78.32,-0.598333],[-78.3225,-0.574167],[-78.2925,-0.578333],[-78.285833,-0.5675],[-78.2775,-0.563333],[-78.279167,-0.5575],[-78.271667,-0.549167],[-78.271667,-0.541667],[-78.265833,-0.530833],[-78.27,-0.511667],[-78.255,-0.503333],[-78.249167,-0.483333],[-78.250833,-0.4775],[-78.245833,-0.469167],[-78.246667,-0.460833],[-78.239167,-0.461667],[-78.235,-0.453333],[-78.235,-0.436667],[-78.2425,-0.428333],[-78.248333,-0.426667],[-78.255,-0.406667],[-78.244167,-0.396667],[-78.2425,-0.383333],[-78.231667,-0.379167],[-78.224167,-0.364167],[-78.215,-0.3625],[-78.214167,-0.355],[-78.208333,-0.349167],[-78.2025,-0.3325],[-78.1925,-0.325833],[-78.190833,-0.320833],[-78.195,-0.305833],[-78.191667,-0.305],[-78.191667,-0.294167],[-78.1875,-0.29],[-78.190833,-0.2725],[-78.185,-0.266667],[-78.19,-0.259167],[-78.1875,-0.254167],[-78.189167,-0.24],[-78.185,-0.238333],[-78.185833,-0.230833],[-78.19,-0.228333],[-78.186667,-0.215],[-78.191667,-0.2125],[-78.189167,-0.198333],[-78.1825,-0.191667],[-78.1725,-0.195],[-78.166667,-0.1875],[-78.158333,-0.185],[-78.155,-0.173333],[-78.146667,-0.173333],[-78.14,-0.1675],[-78.131667,-0.168333],[-78.128333,-0.173333],[-78.129167,-0.178333],[-78.124167,-0.181667],[-78.115833,-0.179167],[-78.1075,-0.180833],[-78.100833,-0.191667],[-78.091667,-0.181667],[-78.084167,-0.19],[-78.079167,-0.183333],[-78.0725,-0.185833],[-78.07,-0.176667],[-78.061667,-0.175833],[-78.060833,-0.168333],[-78.054167,-0.163333],[-78.055833,-0.15],[-78.04,-0.138333],[-78.033333,-0.141667],[-78.0275,-0.138333],[-78.015833,-0.14],[-78.008333,-0.13],[-77.999167,-0.128333],[-77.999167,-0.116667],[-77.995833,-0.111667],[-77.99,-0.11],[-77.995,-0.096667],[-77.999167,-0.095],[-77.995833,-0.080833],[-78.000833,-0.076667],[-78.003333,-0.068333],[-77.9925,-0.059167],[-77.985833,-0.058333],[-77.991667,-0.053333],[-77.991667,-0.043333],[-77.986667,-0.035833],[-77.991667,-0.016667],[-77.9875,-0.011667],[-77.9925,-0.003333],[-77.989167,0.024167],[-77.998333,0.025],[-78.0025,0.029167],[-78.005833,0.045],[-78.001667,0.054167],[-77.995,0.056667],[-77.986667,0.07],[-77.975833,0.095],[-77.975833,0.101667],[-77.979167,0.101667],[-77.980833,0.105833],[-77.9725,0.1225],[-77.975,0.128333],[-77.97,0.135833],[-77.971667,0.143333],[-77.964167,0.1525],[-77.965833,0.168333],[-77.979167,0.169167],[-77.9825,0.1725],[-78.0025,0.171667],[-78.023333,0.1875],[-78.030833,0.188333],[-78.030833,0.180833],[-78.035,0.175],[-78.034167,0.1675],[-78.075833,0.149167],[-78.084167,0.153333],[-78.111667,0.150833],[-78.124167,0.155],[-78.129167,0.150833],[-78.145833,0.150833],[-78.155,0.14],[-78.166667,0.145],[-78.178333,0.134167],[-78.188333,0.129167],[-78.195833,0.13],[-78.2,0.125],[-78.211667,0.123333],[-78.225833,0.128333],[-78.229167,0.125833],[-78.229167,0.120833],[-78.245833,0.1225],[-78.249167,0.14],[-78.26,0.151667],[-78.270833,0.1475],[-78.274167,0.158333],[-78.284167,0.160833],[-78.285833,0.165],[-78.304167,0.166667],[-78.308333,0.171667],[-78.311667,0.186667],[-78.33,0.190833],[-78.3325,0.201667],[-78.35,0.209167],[-78.355833,0.216667],[-78.3725,0.2225],[-78.378333,0.230833],[-78.379167,0.240833],[-78.393333,0.244167],[-78.394167,0.25],[-78.405,0.2525],[-78.419167,0.250833],[-78.415833,0.2725],[-78.410833,0.273333],[-78.409167,0.28],[-78.401667,0.284167],[-78.4025,0.2925],[-78.3925,0.298333],[-78.39,0.306667],[-78.391667,0.316667],[-78.389167,0.316667],[-78.388333,0.3225],[-78.3725,0.328333],[-78.363333,0.34],[-78.361667,0.35],[-78.3475,0.361667],[-78.348333,0.3775],[-78.341667,0.390833],[-78.343333,0.400833],[-78.348333,0.408333],[-78.346667,0.413333],[-78.339167,0.4175],[-78.345,0.425833],[-78.33,0.455],[-78.339167,0.471667],[-78.3325,0.475833],[-78.3275,0.475],[-78.326667,0.478333],[-78.3325,0.485],[-78.339167,0.484167],[-78.338333,0.4925],[-78.349167,0.508333],[-78.353333,0.511667],[-78.360833,0.510833],[-78.366667,0.515833],[-78.3675,0.5275],[-78.375,0.535],[-78.375,0.545833],[-78.380833,0.559167],[-78.384167,0.5625],[-78.388333,0.561667],[-78.3875,0.566667],[-78.395,0.568333],[-78.400833,0.575833],[-78.4225,0.586667]]]}},{"type":"Feature","properties":{"basin":"daule","site":"marcel_laniado","role":"wikidata point","pour_point":true,"pour_lat":-0.93875,"pour_lon":-79.762083,"located_from":"point recorded in PLAN.md §2.4","area_km2":4196.7,"centroid_lat":-0.54398,"centroid_lon":-79.64124,"inside_lat":-0.54398,"inside_lon":-79.64124,"mean_elev_m":200,"inamhi_best":"Marcel_Laniado_4326","inamhi_iou":0.986,"dem":"Copernicus GLO-90","generated_at":"2026-09-23T04:21:25Z"},"geometry":{"type":"Polygon","coordinates":[[[-79.3125,-0.238333],[-79.335,-0.244167],[-79.355,-0.245],[-79.373333,-0.2525],[-79.381667,-0.250833],[-79.385,-0.259167],[-79.4125,-0.261667],[-79.420833,-0.265833],[-79.428333,-0.264167],[-79.444167,-0.274167],[-79.463333,-0.273333],[-79.47,-0.264167],[-79.4825,-0.256667],[-79.4825,-0.2525],[-79.4975,-0.246667],[-79.5025,-0.249167],[-79.5025,-0.246667],[-79.510833,-0.245833],[-79.5125,-0.2575],[-79.53,-0.260833],[-79.53,-0.266667],[-79.535,-0.27],[-79.536667,-0.280833],[-79.540833,-0.285],[-79.544167,-0.283333],[-79.541667,-0.276667],[-79.548333,-0.269167],[-79.5475,-0.265],[-79.556667,-0.264167],[-79.5575,-0.255833],[-79.569167,-0.25],[-79.579167,-0.2575],[-79.588333,-0.254167],[-79.596667,-0.260833],[-79.603333,-0.260833],[-79.605833,-0.265],[-79.61,-0.263333],[-79.618333,-0.280833],[-79.615833,-0.283333],[-79.6175,-0.288333],[-79.633333,-0.288333],[-79.639167,-0.295833],[-79.646667,-0.2975],[-79.65,-0.305],[-79.655,-0.301667],[-79.66,-0.303333],[-79.661667,-0.3075],[-79.6725,-0.305833],[-79.673333,-0.310833],[-79.678333,-0.310833],[-79.678333,-0.3175],[-79.684167,-0.3175],[-79.69,-0.324167],[-79.695833,-0.323333],[-79.6975,-0.335833],[-79.7025,-0.3375],[-79.706667,-0.353333],[-79.710833,-0.356667],[-79.731667,-0.355],[-79.734167,-0.35],[-79.745,-0.345],[-79.745,-0.340833],[-79.755,-0.339167],[-79.7625,-0.330833],[-79.7625,-0.321667],[-79.765833,-0.318333],[-79.775,-0.319167],[-79.780833,-0.31],[-79.788333,-0.31],[-79.7925,-0.3],[-79.8,-0.2975],[-79.8075,-0.289167],[-79.81,-0.288333],[-79.814167,-0.293333],[-79.825,-0.2925],[-79.828333,-0.279167],[-79.839167,-0.275],[-79.848333,-0.258333],[-79.855,-0.2575],[-79.859167,-0.251667],[-79.866667,-0.254167],[-79.869167,-0.251667],[-79.8775,-0.2525],[-79.888333,-0.268333],[-79.909167,-0.265],[-79.9125,-0.269167],[-79.9275,-0.265],[-79.9325,-0.251667],[-79.939167,-0.25],[-79.945,-0.253333],[-79.953333,-0.265],[-79.951667,-0.2725],[-79.946667,-0.275833],[-79.946667,-0.290833],[-79.9575,-0.300833],[-79.969167,-0.300833],[-79.973333,-0.3125],[-79.961667,-0.324167],[-79.961667,-0.3275],[-79.9525,-0.33],[-79.951667,-0.3525],[-79.960833,-0.358333],[-79.960833,-0.379167],[-79.9675,-0.383333],[-79.965,-0.408333],[-79.969167,-0.415],[-79.955,-0.4225],[-79.956667,-0.433333],[-79.9525,-0.444167],[-79.948333,-0.445833],[-79.950833,-0.461667],[-79.945,-0.4775],[-79.945,-0.486667],[-79.953333,-0.495],[-79.951667,-0.501667],[-79.9575,-0.5025],[-79.965,-0.514167],[-79.963333,-0.519167],[-79.953333,-0.524167],[-79.9475,-0.54],[-79.95,-0.553333],[-79.940833,-0.558333],[-79.935833,-0.565833],[-79.935,-0.578333],[-79.918333,-0.581667],[-79.913333,-0.6],[-79.890833,-0.600833],[-79.889167,-0.615833],[-79.884167,-0.62],[-79.886667,-0.631667],[-79.899167,-0.641667],[-79.895833,-0.658333],[-79.898333,-0.659167],[-79.8975,-0.669167],[-79.903333,-0.678333],[-79.904167,-0.686667],[-79.9,-0.693333],[-79.885,-0.696667],[-79.883333,-0.705],[-79.88,-0.705833],[-79.881667,-0.715],[-79.876667,-0.715833],[-79.8775,-0.729167],[-79.8825,-0.738333],[-79.8775,-0.750833],[-79.879167,-0.763333],[-79.881667,-0.764167],[-79.884167,-0.775833],[-79.898333,-0.776667],[-79.9,-0.786667],[-79.905833,-0.793333],[-79.913333,-0.7925],[-79.9175,-0.7975],[-79.9375,-0.794167],[-79.935833,-0.8125],[-79.929167,-0.8175],[-79.910833,-0.8175],[-79.901667,-0.831667],[-79.9,-0.848333],[-79.903333,-0.848333],[-79.9075,-0.855],[-79.908333,-0.863333],[-79.8975,-0.876667],[-79.9025,-0.879167],[-79.899167,-0.886667],[-79.891667,-0.884167],[-79.888333,-0.885833],[-79.886667,-0.894167],[-79.871667,-0.894167],[-79.874167,-0.9025],[-79.865,-0.908333],[-79.863333,-0.915],[-79.8575,-0.918333],[-79.853333,-0.916667],[-79.850833,-0.9225],[-79.846667,-0.918333],[-79.826667,-0.933333],[-79.820833,-0.931667],[-79.819167,-0.9275],[-79.816667,-0.931667],[-79.808333,-0.9325],[-79.796667,-0.924167],[-79.788333,-0.925833],[-79.780833,-0.919167],[-79.7725,-0.9225],[-79.7725,-0.925833],[-79.7675,-0.925],[-79.7675,-0.929167],[-79.760833,-0.931667],[-79.764167,-0.938333],[-79.76,-0.94],[-79.749167,-0.930833],[-79.745833,-0.931667],[-79.746667,-0.929167],[-79.739167,-0.93],[-79.735833,-0.925],[-79.725,-0.9225],[-79.723333,-0.914167],[-79.725833,-0.913333],[-79.725833,-0.9075],[-79.721667,-0.9025],[-79.7075,-0.911667],[-79.7,-0.909167],[-79.691667,-0.914167],[-79.6825,-0.914167],[-79.676667,-0.905833],[-79.67,-0.904167],[-79.663333,-0.916667],[-79.6575,-0.915833],[-79.650833,-0.906667],[-79.651667,-0.901667],[-79.645,-0.8975],[-79.6425,-0.89],[-79.63,-0.891667],[-79.6225,-0.883333],[-79.610833,-0.878333],[-79.606667,-0.88],[-79.608333,-0.870833],[-79.593333,-0.8675],[-79.594167,-0.860833],[-79.589167,-0.860833],[-79.588333,-0.8575],[-79.575833,-0.8575],[-79.575,-0.854167],[-79.5675,-0.858333],[-79.551667,-0.854167],[-79.551667,-0.85],[-79.546667,-0.849167],[-79.541667,-0.8375],[-79.535,-0.834167],[-79.53,-0.835833],[-79.519167,-0.829167],[-79.5125,-0.831667],[-79.504167,-0.819167],[-79.5025,-0.808333],[-79.490833,-0.7975],[-79.4925,-0.790833],[-79.488333,-0.78],[-79.485,-0.78],[-79.476667,-0.770833],[-79.48,-0.7675],[-79.478333,-0.7625],[-79.4725,-0.756667],[-79.465,-0.756667],[-79.4625,-0.751667],[-79.4675,-0.745],[-79.470833,-0.748333],[-79.474167,-0.745833],[-79.474167,-0.738333],[-79.469167,-0.733333],[-79.47,-0.7275],[-79.466667,-0.7275],[-79.468333,-0.72],[-79.465833,-0.714167],[-79.458333,-0.710833],[-79.458333,-0.703333],[-79.455833,-0.703333],[-79.46,-0.699167],[-79.4575,-0.689167],[-79.460833,-0.678333],[-79.449167,-0.665833],[-79.443333,-0.665],[-79.4425,-0.650833],[-79.436667,-0.641667],[-79.4275,-0.640833],[-79.425,-0.634167],[-79.4075,-0.635833],[-79.405,-0.623333],[-79.409167,-0.620833],[-79.398333,-0.611667],[-79.398333,-0.605833],[-79.391667,-0.605833],[-79.395,-0.600833],[-79.393333,-0.598333],[-79.384167,-0.5975],[-79.3825,-0.585],[-79.3675,-0.585833],[-79.37,-0.575],[-79.361667,-0.566667],[-79.3675,-0.564167],[-79.368333,-0.559167],[-79.365,-0.555833],[-79.369167,-0.555],[-79.373333,-0.544167],[-79.3675,-0.544167],[-79.365,-0.540833],[-79.3675,-0.5275],[-79.364167,-0.52],[-79.369167,-0.519167],[-79.371667,-0.510833],[-79.368333,-0.510833],[-79.366667,-0.506667],[-79.355833,-0.505833],[-79.346667,-0.49],[-79.34,-0.49],[-79.34,-0.4825],[-79.3325,-0.479167],[-79.326667,-0.458333],[-79.318333,-0.456667],[-79.306667,-0.441667],[-79.301667,-0.4425],[-79.3025,-0.433333],[-79.295833,-0.430833],[-79.295,-0.4225],[-79.289167,-0.416667],[-79.290833,-0.410833],[-79.283333,-0.409167],[-79.2825,-0.403333],[-79.278333,-0.401667],[-79.279167,-0.3975],[-79.273333,-0.394167],[-79.270833,-0.379167],[-79.259167,-0.369167],[-79.2575,-0.36],[-79.249167,-0.351667],[-79.244167,-0.34],[-79.235833,-0.335],[-79.228333,-0.313333],[-79.22,-0.305],[-79.210833,-0.284167],[-79.189167,-0.2625],[-79.175,-0.255833],[-79.1825,-0.249167],[-79.215833,-0.2425],[-79.220833,-0.238333],[-79.223333,-0.240833],[-79.231667,-0.238333],[-79.2425,-0.24],[-79.2525,-0.2475],[-79.27,-0.240833],[-79.294167,-0.241667],[-79.3125,-0.238333]]]}},{"type":"Feature","properties":{"basin":"jubones","site":"minas_san_francisco","role":"dam","pour_point":true,"pour_lat":-3.315417,"pour_lon":-79.482917,"located_from":"OSM way/690695821 (17 nodes), api.openstreetmap.org 2026-09-23T04:22:27Z","area_km2":3344.6,"centroid_lat":-3.3653,"centroid_lon":-79.25462,"inside_lat":-3.3653,"inside_lon":-79.25462,"mean_elev_m":2602,"inamhi_best":"Minas_San_fancisco","inamhi_iou":0.995,"dem":"Copernicus GLO-90","generated_at":"2026-09-23T04:21:25Z"},"geometry":{"type":"Polygon","coordinates":[[[-79.3625,-3.0325],[-79.365833,-3.0375],[-79.373333,-3.036667],[-79.379167,-3.040833],[-79.379167,-3.05],[-79.385833,-3.051667],[-79.385833,-3.055833],[-79.3925,-3.059167],[-79.3975,-3.066667],[-79.405833,-3.066667],[-79.423333,-3.079167],[-79.425833,-3.085833],[-79.445,-3.105833],[-79.445833,-3.110833],[-79.440833,-3.120833],[-79.449167,-3.130833],[-79.450833,-3.138333],[-79.4675,-3.135],[-79.481667,-3.145],[-79.511667,-3.131667],[-79.523333,-3.139167],[-79.526667,-3.1375],[-79.53,-3.1425],[-79.528333,-3.15],[-79.510833,-3.156667],[-79.5125,-3.165],[-79.509167,-3.1675],[-79.509167,-3.183333],[-79.503333,-3.190833],[-79.500833,-3.203333],[-79.503333,-3.210833],[-79.498333,-3.209167],[-79.495,-3.211667],[-79.494167,-3.221667],[-79.490833,-3.2225],[-79.49,-3.229167],[-79.4825,-3.239167],[-79.481667,-3.245],[-79.485833,-3.2475],[-79.4825,-3.269167],[-79.485,-3.2725],[-79.4825,-3.285],[-79.485,-3.291667],[-79.480833,-3.3075],[-79.483333,-3.309167],[-79.4825,-3.3275],[-79.486667,-3.335],[-79.4975,-3.339167],[-79.503333,-3.351667],[-79.501667,-3.3675],[-79.505,-3.370833],[-79.499167,-3.38],[-79.500833,-3.391667],[-79.505,-3.394167],[-79.505833,-3.401667],[-79.510833,-3.4025],[-79.5175,-3.419167],[-79.5025,-3.4375],[-79.503333,-3.484167],[-79.516667,-3.505],[-79.5425,-3.506667],[-79.5525,-3.515],[-79.543333,-3.5225],[-79.544167,-3.528333],[-79.539167,-3.533333],[-79.531667,-3.533333],[-79.525,-3.528333],[-79.515,-3.529167],[-79.5075,-3.525],[-79.505833,-3.533333],[-79.49,-3.546667],[-79.490833,-3.555833],[-79.483333,-3.5575],[-79.478333,-3.57],[-79.460833,-3.560833],[-79.4575,-3.565],[-79.439167,-3.565],[-79.431667,-3.568333],[-79.418333,-3.585],[-79.420833,-3.593333],[-79.414167,-3.608333],[-79.4075,-3.61],[-79.4,-3.599167],[-79.39,-3.605],[-79.390833,-3.6225],[-79.379167,-3.628333],[-79.370833,-3.64],[-79.370833,-3.6475],[-79.366667,-3.649167],[-79.365833,-3.660833],[-79.369167,-3.664167],[-79.365833,-3.678333],[-79.3575,-3.681667],[-79.355833,-3.691667],[-79.350833,-3.691667],[-79.346667,-3.698333],[-79.339167,-3.694167],[-79.328333,-3.698333],[-79.324167,-3.705833],[-79.325,-3.7175],[-79.316667,-3.720833],[-79.3075,-3.710833],[-79.305833,-3.698333],[-79.288333,-3.685833],[-79.2775,-3.69],[-79.268333,-3.679167],[-79.263333,-3.679167],[-79.26,-3.6725],[-79.255833,-3.671667],[-79.246667,-3.683333],[-79.2325,-3.68],[-79.230833,-3.686667],[-79.2175,-3.6975],[-79.22,-3.71],[-79.203333,-3.709167],[-79.1975,-3.721667],[-79.188333,-3.720833],[-79.175833,-3.711667],[-79.160833,-3.715833],[-79.16,-3.706667],[-79.155833,-3.705],[-79.1575,-3.699167],[-79.154167,-3.696667],[-79.1575,-3.6625],[-79.145833,-3.66],[-79.144167,-3.665833],[-79.139167,-3.665],[-79.131667,-3.661667],[-79.13,-3.6575],[-79.120833,-3.655833],[-79.1175,-3.65],[-79.105,-3.648333],[-79.11,-3.638333],[-79.108333,-3.631667],[-79.095833,-3.625],[-79.081667,-3.626667],[-79.068333,-3.618333],[-79.065833,-3.611667],[-79.058333,-3.610833],[-79.061667,-3.603333],[-79.056667,-3.601667],[-79.0525,-3.590833],[-79.056667,-3.585],[-79.045,-3.578333],[-79.046667,-3.5725],[-79.054167,-3.575],[-79.054167,-3.569167],[-79.05,-3.565833],[-79.050833,-3.559167],[-79.045833,-3.550833],[-79.055833,-3.540833],[-79.06,-3.520833],[-79.0675,-3.515],[-79.065833,-3.5025],[-79.058333,-3.499167],[-79.054167,-3.489167],[-79.044167,-3.483333],[-79.0425,-3.476667],[-79.048333,-3.4625],[-79.055,-3.461667],[-79.054167,-3.449167],[-79.063333,-3.435],[-79.059167,-3.4325],[-79.06,-3.423333],[-79.056667,-3.4225],[-79.049167,-3.41],[-79.0525,-3.406667],[-79.05,-3.399167],[-79.0325,-3.389167],[-79.0275,-3.376667],[-79.024167,-3.378333],[-79.016667,-3.374167],[-79.010833,-3.366667],[-79.005,-3.3675],[-79.001667,-3.3625],[-78.991667,-3.358333],[-78.99,-3.354167],[-78.975833,-3.35],[-78.970833,-3.353333],[-78.96,-3.344167],[-78.9425,-3.343333],[-78.941667,-3.336667],[-78.948333,-3.313333],[-78.946667,-3.308333],[-78.950833,-3.3075],[-78.9525,-3.3],[-78.934167,-3.296667],[-78.935833,-3.275],[-78.923333,-3.27],[-78.928333,-3.26],[-78.925833,-3.2525],[-78.935833,-3.248333],[-78.938333,-3.240833],[-78.944167,-3.2375],[-78.945,-3.230833],[-78.955,-3.228333],[-78.956667,-3.223333],[-78.961667,-3.225],[-78.9725,-3.2175],[-78.976667,-3.208333],[-78.975,-3.1975],[-78.981667,-3.200833],[-78.984167,-3.194167],[-78.9875,-3.196667],[-79.001667,-3.196667],[-79.001667,-3.193333],[-79.008333,-3.196667],[-79.014167,-3.191667],[-79.019167,-3.191667],[-79.020833,-3.1875],[-79.026667,-3.186667],[-79.028333,-3.1725],[-79.04,-3.168333],[-79.038333,-3.161667],[-79.045,-3.158333],[-79.044167,-3.15],[-79.0475,-3.145833],[-79.0625,-3.14],[-79.069167,-3.144167],[-79.084167,-3.139167],[-79.0875,-3.128333],[-79.099167,-3.12],[-79.099167,-3.115],[-79.104167,-3.113333],[-79.106667,-3.1075],[-79.121667,-3.1075],[-79.141667,-3.115833],[-79.1475,-3.115833],[-79.155,-3.11],[-79.166667,-3.110833],[-79.17,-3.101667],[-79.1825,-3.094167],[-79.184167,-3.09],[-79.1975,-3.081667],[-79.203333,-3.081667],[-79.210833,-3.070833],[-79.22,-3.071667],[-79.2275,-3.066667],[-79.23,-3.055833],[-79.245,-3.059167],[-79.248333,-3.055],[-79.255,-3.055833],[-79.263333,-3.05],[-79.273333,-3.061667],[-79.275833,-3.0725],[-79.285833,-3.066667],[-79.290833,-3.066667],[-79.291667,-3.070833],[-79.303333,-3.070833],[-79.305833,-3.065833],[-79.3125,-3.065],[-79.315,-3.061667],[-79.325,-3.061667],[-79.330833,-3.054167],[-79.331667,-3.045833],[-79.339167,-3.040833],[-79.3525,-3.046667],[-79.358333,-3.033333],[-79.3625,-3.0325]]]}},{"type":"Feature","properties":{"basin":"zamora","site":"delsitanisagua","role":"dam","pour_point":true,"pour_lat":-3.98125,"pour_lon":-79.017083,"located_from":"OSM way/726604479 \"Delsitanisagua hidroelectrica\" (12 nodes), api.openstreetmap.org 2026-09-23T04:22:32Z","area_km2":1137,"centroid_lat":-3.87924,"centroid_lon":-79.15959,"inside_lat":-3.87924,"inside_lon":-79.15959,"mean_elev_m":2476,"inamhi_best":"Delsinta","inamhi_iou":0.816,"dem":"Copernicus GLO-90","generated_at":"2026-09-23T04:21:25Z"},"geometry":{"type":"Polygon","coordinates":[[[-79.255,-3.671667],[-79.26,-3.6725],[-79.263333,-3.679167],[-79.268333,-3.679167],[-79.2775,-3.69],[-79.288333,-3.685833],[-79.305833,-3.698333],[-79.3075,-3.710833],[-79.311667,-3.716667],[-79.315,-3.716667],[-79.316667,-3.720833],[-79.326667,-3.716667],[-79.3325,-3.720833],[-79.338333,-3.7325],[-79.345,-3.733333],[-79.3475,-3.748333],[-79.340833,-3.76],[-79.3425,-3.769167],[-79.338333,-3.773333],[-79.339167,-3.779167],[-79.334167,-3.781667],[-79.333333,-3.7975],[-79.32,-3.8025],[-79.319167,-3.809167],[-79.315,-3.813333],[-79.310833,-3.836667],[-79.3,-3.841667],[-79.295833,-3.85],[-79.289167,-3.85],[-79.285833,-3.859167],[-79.275,-3.8675],[-79.2675,-3.865],[-79.264167,-3.875833],[-79.26,-3.8775],[-79.263333,-3.886667],[-79.261667,-3.9175],[-79.268333,-3.924167],[-79.263333,-3.934167],[-79.27,-3.955],[-79.265,-3.9725],[-79.265,-3.980833],[-79.269167,-3.988333],[-79.26,-3.994167],[-79.254167,-4.0175],[-79.243333,-4.025833],[-79.243333,-4.0325],[-79.239167,-4.033333],[-79.235,-4.04],[-79.231667,-4.056667],[-79.224167,-4.064167],[-79.225833,-4.084167],[-79.22,-4.085833],[-79.208333,-4.08],[-79.205833,-4.084167],[-79.201667,-4.084167],[-79.1875,-4.1075],[-79.161667,-4.115],[-79.16,-4.094167],[-79.155,-4.0875],[-79.153333,-4.068333],[-79.140833,-4.059167],[-79.139167,-4.041667],[-79.131667,-4.0325],[-79.120833,-4.0325],[-79.110833,-4.023333],[-79.085833,-4.031667],[-79.0775,-4.029167],[-79.070833,-4.023333],[-79.070833,-4.013333],[-79.0575,-4.004167],[-79.043333,-3.9825],[-79.0375,-3.986667],[-79.024167,-3.986667],[-79.02,-3.981667],[-78.990833,-3.98],[-78.984167,-3.990833],[-78.983333,-4.003333],[-78.978333,-4.005],[-78.965,-3.9875],[-78.949167,-3.99],[-78.948333,-3.98],[-78.9525,-3.970833],[-78.958333,-3.966667],[-78.958333,-3.949167],[-78.964167,-3.940833],[-78.960833,-3.9275],[-78.965,-3.9225],[-78.9675,-3.91],[-78.980833,-3.903333],[-78.985,-3.8975],[-79.003333,-3.896667],[-79.005,-3.8775],[-79.001667,-3.875],[-79,-3.863333],[-78.9925,-3.8575],[-78.9875,-3.839167],[-79.003333,-3.83],[-79.005,-3.818333],[-79.001667,-3.814167],[-79.005,-3.808333],[-79.011667,-3.805],[-79.02,-3.809167],[-79.036667,-3.803333],[-79.044167,-3.805],[-79.0525,-3.79],[-79.060833,-3.79],[-79.065,-3.785],[-79.0725,-3.789167],[-79.078333,-3.788333],[-79.079167,-3.7925],[-79.0875,-3.791667],[-79.09,-3.788333],[-79.1,-3.789167],[-79.105833,-3.779167],[-79.101667,-3.760833],[-79.11,-3.75],[-79.11,-3.746667],[-79.104167,-3.745833],[-79.1,-3.739167],[-79.105833,-3.7375],[-79.114167,-3.7275],[-79.134167,-3.721667],[-79.141667,-3.7175],[-79.1425,-3.711667],[-79.155,-3.705],[-79.16,-3.706667],[-79.160833,-3.715833],[-79.175833,-3.711667],[-79.188333,-3.720833],[-79.1975,-3.721667],[-79.203333,-3.709167],[-79.22,-3.71],[-79.2175,-3.6975],[-79.230833,-3.686667],[-79.2325,-3.68],[-79.246667,-3.683333],[-79.255,-3.671667]]]}},{"type":"Feature","properties":{"basin":"zamora","site":"delsitanisagua","role":"powerhouse","pour_point":false,"pour_lat":-4.047917,"pour_lon":-78.98125,"located_from":"OSM way/690695824 \"Central Hidroeléctrica Delsitanisagua\" (24 nodes), api.openstreetmap.org 2026-09-23T04:22:32Z","area_km2":1387.3,"centroid_lat":-3.91403,"centroid_lon":-79.14389,"inside_lat":-3.91403,"inside_lon":-79.14389,"mean_elev_m":2480,"inamhi_best":"Delsinta","inamhi_iou":0.992,"dem":"Copernicus GLO-90","generated_at":"2026-09-23T04:21:25Z"},"geometry":{"type":"Polygon","coordinates":[[[-79.255,-3.671667],[-79.26,-3.6725],[-79.263333,-3.679167],[-79.268333,-3.679167],[-79.2775,-3.69],[-79.286667,-3.685833],[-79.291667,-3.6875],[-79.305833,-3.698333],[-79.3075,-3.710833],[-79.311667,-3.716667],[-79.315,-3.716667],[-79.316667,-3.720833],[-79.326667,-3.716667],[-79.3325,-3.720833],[-79.338333,-3.7325],[-79.345,-3.733333],[-79.3475,-3.748333],[-79.340833,-3.76],[-79.3425,-3.769167],[-79.338333,-3.773333],[-79.339167,-3.779167],[-79.334167,-3.781667],[-79.333333,-3.7975],[-79.32,-3.8025],[-79.319167,-3.809167],[-79.315,-3.813333],[-79.310833,-3.836667],[-79.3,-3.841667],[-79.295833,-3.85],[-79.289167,-3.85],[-79.285833,-3.859167],[-79.275,-3.8675],[-79.2675,-3.865],[-79.264167,-3.875833],[-79.26,-3.8775],[-79.263333,-3.886667],[-79.261667,-3.9175],[-79.268333,-3.924167],[-79.263333,-3.934167],[-79.27,-3.955],[-79.265,-3.9725],[-79.265,-3.980833],[-79.269167,-3.988333],[-79.26,-3.994167],[-79.254167,-4.0175],[-79.243333,-4.025833],[-79.243333,-4.0325],[-79.239167,-4.033333],[-79.235,-4.04],[-79.231667,-4.056667],[-79.224167,-4.064167],[-79.225833,-4.084167],[-79.22,-4.085833],[-79.208333,-4.08],[-79.205833,-4.084167],[-79.201667,-4.084167],[-79.1875,-4.1075],[-79.161667,-4.115],[-79.1575,-4.1275],[-79.158333,-4.154167],[-79.143333,-4.163333],[-79.133333,-4.161667],[-79.125,-4.168333],[-79.121667,-4.1775],[-79.105833,-4.185],[-79.100833,-4.181667],[-79.104167,-4.171667],[-79.1,-4.161667],[-79.093333,-4.161667],[-79.089167,-4.144167],[-79.090833,-4.140833],[-79.08,-4.135],[-79.080833,-4.120833],[-79.076667,-4.113333],[-79.069167,-4.115833],[-79.046667,-4.100833],[-79.038333,-4.104167],[-79.018333,-4.105],[-79.005,-4.0975],[-78.993333,-4.06],[-78.984167,-4.058333],[-78.980833,-4.045833],[-78.9775,-4.043333],[-78.9775,-4.033333],[-78.974167,-4.030833],[-78.9725,-4.019167],[-78.979167,-4.011667],[-78.98,-4.005],[-78.975,-4.0025],[-78.970833,-3.9925],[-78.965,-3.9875],[-78.949167,-3.99],[-78.948333,-3.98],[-78.9525,-3.970833],[-78.958333,-3.966667],[-78.958333,-3.949167],[-78.964167,-3.940833],[-78.960833,-3.9275],[-78.97,-3.9075],[-78.980833,-3.903333],[-78.985,-3.8975],[-79.003333,-3.896667],[-79.005,-3.8775],[-79.001667,-3.875],[-79,-3.863333],[-78.9925,-3.8575],[-78.9875,-3.839167],[-79.003333,-3.83],[-79.005,-3.818333],[-79.001667,-3.814167],[-79.005,-3.808333],[-79.011667,-3.805],[-79.02,-3.809167],[-79.036667,-3.803333],[-79.044167,-3.805],[-79.0525,-3.79],[-79.060833,-3.79],[-79.065,-3.785],[-79.0725,-3.789167],[-79.078333,-3.788333],[-79.079167,-3.7925],[-79.0875,-3.791667],[-79.09,-3.788333],[-79.1,-3.789167],[-79.105833,-3.779167],[-79.101667,-3.760833],[-79.11,-3.75],[-79.11,-3.746667],[-79.104167,-3.745833],[-79.1,-3.739167],[-79.105833,-3.7375],[-79.114167,-3.7275],[-79.134167,-3.721667],[-79.141667,-3.7175],[-79.1425,-3.711667],[-79.155,-3.705],[-79.16,-3.706667],[-79.160833,-3.715833],[-79.175833,-3.711667],[-79.188333,-3.720833],[-79.1975,-3.721667],[-79.203333,-3.709167],[-79.22,-3.71],[-79.2175,-3.6975],[-79.230833,-3.686667],[-79.2325,-3.68],[-79.246667,-3.683333],[-79.255,-3.671667]]]}}]}
